$$SOE
2461295.500000000, A.D. 2026-Sep-12 00:00:00.0000, -1.412767450626257E+08, 2.095154526230404E+08, 7.202926540979676E+07,
2461302.500000000, A.D. 2026-Sep-19 00:00:00.0000, -1.535771773613485E+08, 2.029637723846363E+08, 6.953502147139812E+07,
2461309.500000000, A.D. 2026-Sep-26 00:00:00.0000, -1.654719643201045E+08, 1.958758458289539E+08, 6.685701861936126E+07,
2461316.500000000, A.D. 2026-Oct-03 00:00:00.0000, -1.769352919384325E+08, 1.882770432351308E+08, 6.400460042003547E+07,
2461323.500000000, A.D. 2026-Oct-10 00:00:00.0000, -1.879434240439959E+08, 1.801937403905253E+08, 6.098743622117282E+07,
2461330.500000000, A.D. 2026-Oct-17 00:00:00.0000, -1.984747163012934E+08, 1.716531463382239E+08, 5.781546002745910E+07,
2461337.500000000, A.D. 2026-Oct-24 00:00:00.0000, -2.085096131603087E+08, 1.626831370573266E+08, 5.449881174142545E+07,
2461344.500000000, A.D. 2026-Oct-31 00:00:00.0000, -2.180306292523919E+08, 1.533120964532734E+08, 5.104778124290960E+07,
2461351.500000000, A.D. 2026-Nov-07 00:00:00.0000, -2.270223165886555E+08, 1.435687658929399E+08, 4.747275566847502E+07,
2461358.500000000, A.D. 2026-Nov-14 00:00:00.0000, -2.354712190937286E+08, 1.334821040573766E+08, 4.378417023411874E+07,
2461365.500000000, A.D. 2026-Nov-21 00:00:00.0000, -2.433658180216112E+08, 1.230811584208728E+08, 3.999246302239782E+07,
2461372.500000000, A.D. 2026-Nov-28 00:00:00.0000, -2.506964709542077E+08, 1.123949457457772E+08, 3.610803369751697E+07,
2461379.500000000, A.D. 2026-Dec-05 00:00:00.0000, -2.574553423781423E+08, 1.014523411260857E+08, 3.214120580316613E+07,
2461386.500000000, A.D. 2026-Dec-12 00:00:00.0000, -2.636363271810825E+08, 9.028197867133436E+07, 2.810219285444669E+07,
2461393.500000000, A.D. 2026-Dec-19 00:00:00.0000, -2.692349703786179E+08, 7.891216365522155E+07, 2.400106831999742E+07,
2461400.500000000, A.D. 2026-Dec-26 00:00:00.0000, -2.742483845221950E+08, 6.737079496521880E+07, 1.984773931482116E+07,
2461407.500000000, A.D. 2027-Jan-02 00:00:00.0000, -2.786751656780479E+08, 5.568529725831482E+07, 1.565192380161276E+07,
2461414.500000000, A.D. 2027-Jan-09 00:00:00.0000, -2.825153088930858E+08, 4.388256235214665E+07, 1.142313110070000E+07,
2461421.500000000, A.D. 2027-Jan-16 00:00:00.0000, -2.857701240134367E+08, 3.198889931263805E+07, 7.170645493986916E+06,
2461428.500000000, A.D. 2027-Jan-23 00:00:00.0000, -2.884421525723033E+08, 2.002999261322036E+07, 2.903512689827543E+06,
2461435.500000000, A.D. 2027-Jan-30 00:00:00.0000, -2.905350861852230E+08, 8.030867700899647E+06, -1.369471102099308E+06,
2461442.500000000, A.D. 2027-Feb-06 00:00:00.0000, -2.920536865397431E+08, -3.984136336804320E+06, -5.639767723303640E+06,
2461449.500000000, A.D. 2027-Feb-13 00:00:00.0000, -2.930037078714623E+08, -1.599138644169170E+07, -9.899103326109309E+06,
2461456.500000000, A.D. 2027-Feb-20 00:00:00.0000, -2.933918246577700E+08, -2.796796902070449E+07, -1.413947240905694E+07,
2461463.500000000, A.D. 2027-Feb-27 00:00:00.0000, -2.932255634278840E+08, -3.989170095961914E+07, -1.835314023895894E+07,
2461470.500000000, A.D. 2027-Mar-06 00:00:00.0000, -2.925132358729501E+08, -5.174113684769875E+07, -2.253264399180344E+07,
2461477.500000000, A.D. 2027-Mar-13 00:00:00.0000, -2.912638749640450E+08, -6.349557089119375E+07, -2.667079249565604E+07,
2461484.500000000, A.D. 2027-Mar-20 00:00:00.0000, -2.894871752538928E+08, -7.513503486001129E+07, -3.076066472313234E+07,
2461491.500000000, A.D. 2027-Mar-27 00:00:00.0000, -2.871934371724115E+08, -8.664029309517246E+07, -3.479560726809683E+07,
2461498.500000000, A.D. 2027-Apr-03 00:00:00.0000, -2.843935150877330E+08, -9.799283505961482E+07, -3.876923098612320E+07,
2461505.500000000, A.D. 2027-Apr-10 00:00:00.0000, -2.810987690052999E+08, -1.091748658051302E+08, -4.267540694247225E+07,
2461512.500000000, A.D. 2027-Apr-17 00:00:00.0000, -2.773210197851829E+08, -1.201692947346055E+08, -4.650826179431275E+07,
2461519.500000000, A.D. 2027-Apr-24 00:00:00.0000, -2.730725076806413E+08, -1.309597230598595E+08, -5.026217272937597E+07,
2461526.500000000, A.D. 2027-May-01 00:00:00.0000, -2.683658537703629E+08, -1.415304302392023E+08, -5.393176208647948E+07,
2461533.500000000, A.D. 2027-May-08 00:00:00.0000, -2.632140238443295E+08, -1.518663589287507E+08, -5.751189171854413E+07,
2461540.500000000, A.D. 2027-May-15 00:00:00.0000, -2.576302961025372E+08, -1.619530977438584E+08, -6.099765696990322E+07,
2461547.500000000, A.D. 2027-May-22 00:00:00.0000, -2.516282340877456E+08, -1.717768646418485E+08, -6.438438041584045E+07,
2461554.500000000, A.D. 2027-May-29 00:00:00.0000, -2.452216613523080E+08, -1.813244925873327E+08, -6.766760586390889E+07,
2461561.500000000, A.D. 2027-Jun-05 00:00:00.0000, -2.384246368272963E+08, -1.905834145339876E+08, -7.084309250375178E+07,
2461568.500000000, A.D. 2027-Jun-12 00:00:00.0000, -2.312514327485954E+08, -1.995416474324703E+08, -7.390680903586645E+07,
2461575.500000000, A.D. 2027-Jun-19 00:00:00.0000, -2.237165153153741E+08, -2.081877763244908E+08, -7.685492786605752E+07,
2461582.500000000, A.D. 2027-Jun-26 00:00:00.0000, -2.158345276493078E+08, -2.165109388985021E+08, -7.968381944847304E+07,
2461589.500000000, A.D. 2027-Jul-03 00:00:00.0000, -2.076202747787676E+08, -2.245008106012476E+08, -8.239004682198630E+07,
2461596.500000000, A.D. 2027-Jul-10 00:00:00.0000, -1.990887104751528E+08, -2.321475903844202E+08, -8.497036037188025E+07,
2461603.500000000, A.D. 2027-Jul-17 00:00:00.0000, -1.902549257736090E+08, -2.394419871998561E+08, -8.742169284763397E+07,
2461610.500000000, A.D. 2027-Jul-24 00:00:00.0000, -1.811341388945577E+08, -2.463752073703688E+08, -8.974115467659831E+07,
2461617.500000000, A.D. 2027-Jul-31 00:00:00.0000, -1.717416860327616E+08, -2.529389426565385E+08, -9.192602960943256E+07,
2461624.500000000, A.D. 2027-Aug-07 00:00:00.0000, -1.620930130982263E+08, -2.591253579154212E+08, -9.397377059937821E+07,
2461631.500000000, A.D. 2027-Aug-14 00:00:00.0000, -1.522036705976183E+08, -2.649270786446212E+08, -9.588199573675129E+07,
2461638.500000000, A.D. 2027-Aug-21 00:00:00.0000, -1.420893109296038E+08, -2.703371818123171E+08, -9.764848458102116E+07,
2461645.500000000, A.D. 2027-Aug-28 00:00:00.0000, -1.317656845619359E+08, -2.753491888049453E+08, -9.927117511830680E+07,
2461652.500000000, A.D. 2027-Sep-04 00:00:00.0000, -1.212486361765660E+08, -2.799570580200514E+08, -1.007481610416299E+08,
2461659.500000000, A.D. 2027-Sep-11 00:00:00.0000, -1.105541020863963E+08, -2.841551777898104E+08, -1.020776892877576E+08,
2461666.500000000, A.D. 2027-Sep-18 00:00:00.0000, -9.969810870141867E+07, -2.879383603059157E+08, -1.032581579020053E+08,
2461673.500000000, A.D. 2027-Sep-25 00:00:00.0000, -8.869677172797318E+07, -2.913018366417755E+08, -1.042881142633123E+08,
2461680.500000000, A.D. 2027-Oct-02 00:00:00.0000, -7.756629593998691E+07, -2.942412528629632E+08, -1.051662536800117E+08,
2461687.500000000, A.D. 2027-Oct-09 00:00:00.0000, -6.632297541720653E+07, -2.967526672504021E+08, -1.058914183666293E+08,
2461694.500000000, A.D. 2027-Oct-16 00:00:00.0000, -5.498319410993975E+07, -2.988325487106647E+08, -1.064625968203375E+08,
2461701.500000000, A.D. 2027-Oct-23 00:00:00.0000, -4.356342639682568E+07, -3.004777763956716E+08, -1.068789236273300E+08,
2461708.500000000, A.D. 2027-Oct-30 00:00:00.0000, -3.208023718813252E+07, -3.016856399342211E+08, -1.071396796854330E+08,
2461715.500000000, A.D. 2027-Nov-06 00:00:00.0000, -2.055028266238657E+07, -3.024538391558640E+08, -1.072442926414001E+08,
2461722.500000000, A.D. 2027-Nov-13 00:00:00.0000, -8.990313538751356E+06, -3.027804853896859E+08, -1.071923375260863E+08,
2461729.500000000, A.D. 2027-Nov-20 00:00:00.0000, 2.582822107197707E+06, -3.026641065353552E+08, -1.069835380333079E+08,
2461736.500000000, A.D. 2027-Nov-27 00:00:00.0000, 1.415217819195210E+07, -3.021036529627064E+08, -1.066177683583033E+08,
2461743.500000000, A.D. 2027-Dec-04 00:00:00.0000, 2.570071019811177E+07, -3.010985033492447E+08, -1.060950553483288E+08,
2461750.500000000, A.D. 2027-Dec-11 00:00:00.0000, 3.721127450605364E+07, -2.996484714396639E+08, -1.054155810035841E+08,
2461757.500000000, A.D. 2027-Dec-18 00:00:00.0000, 4.866662784315810E+07, -2.977538140824822E+08, -1.045796853867856E+08,
2461764.500000000, A.D. 2027-Dec-25 00:00:00.0000, 6.004942709279003E+07, -2.954152405579979E+08, -1.035878699570335E+08,
2461771.500000000, A.D. 2028-Jan-01 00:00:00.0000, 7.134222960194086E+07, -2.926339231911679E+08, -1.024408013296151E+08,
$$EOE